{
  "norad_id": 56841,
  "name": "STARLINK-30078",
  "history": [
    {
      "epoch": "2026-03-28T22:44:21.605856",
      "apogee_km": 484.0675695089294,
      "perigee_km": 482.0270532947188,
      "latitude_deg": 27.889862143985283,
      "longitude_deg": -44.94266015989706,
      "semi_major_axis_km": 6861.184311401824,
      "eccentricity": 0.0001487,
      "inclination_deg": 43.0026,
      "raan_deg": 310.6125,
      "arg_perigee_deg": 278.2988,
      "mean_anomaly_deg": 81.7695,
      "mean_motion_rev_day": 15.27580596
    },
    {
      "epoch": "2026-03-29T00:18:30.828384",
      "apogee_km": 484.12247005375593,
      "perigee_km": 481.97629095393495,
      "latitude_deg": 42.30012332377318,
      "longitude_deg": -38.66574623994529,
      "semi_major_axis_km": 6861.186380503845,
      "eccentricity": 0.0001564,
      "inclination_deg": 43.003,
      "raan_deg": 310.2392,
      "arg_perigee_deg": 256.9924,
      "mean_anomaly_deg": 103.0753,
      "mean_motion_rev_day": 15.27579905
    }
  ]
}